#dV2019  9 18  0  0  0.00000000    8640 U+u   IGS14 FIT TUD 
## 2071 259200.00000000    10.00000000 58744 0.0000000000000
+    1   L47  0  0  0  0  0  0  0  0  0  0  0  0  0  0  0  0                          
+          0  0  0  0  0  0  0  0  0  0  0  0  0  0  0  0  0                          
+          0  0  0  0  0  0  0  0  0  0  0  0  0  0  0  0  0                          
+          0  0  0  0  0  0  0  0  0  0  0  0  0  0  0  0  0                          
+          0  0  0  0  0  0  0  0  0  0  0  0  0  0  0  0  0                          
++         0  0  0  0  0  0  0  0  0  0  0  0  0  0  0  0  0                          
++         0  0  0  0  0  0  0  0  0  0  0  0  0  0  0  0  0                          
++         0  0  0  0  0  0  0  0  0  0  0  0  0  0  0  0  0                          
++         0  0  0  0  0  0  0  0  0  0  0  0  0  0  0  0  0                          
++         0  0  0  0  0  0  0  0  0  0  0  0  0  0  0  0  0                          
%c M  cc GPS ccc cccc cccc cccc cccc ccccc ccccc ccccc ccccc                          
%c cc cc ccc ccc cccc cccc cccc cccc ccccc ccccc ccccc ccccc                          
%f  0.0000000  0.000000000  0.00000000000  0.000000000000000                          
%f  0.0000000  0.000000000  0.00000000000  0.000000000000000                          
%i    0    0    0    0      0      0      0      0         0                          
%i    0    0    0    0      0      0      0      0         0                          
/* Created by: RDOD_AR_WGT                                                            
/* Setup     : SWARMA.19.261_RDOD_AR.inp                                              
/* Executed  : 10-May-2021 15:34 UTC, by swarmgen@euclid2.lr.tudelft.nl               
/*                                                                                    
*  2019 09 18 12 06 00.00000000                             
PL47  1160.1799959   957.1693019 -6653.9138808 999999.999999
VL47 46632.7817705 57837.0226498 16464.7278759 999999.999999
*  2019 09 18 12 06 10.00000000                             
PL47  1206.7818052  1014.9116233 -6637.0328037 999999.999999
VL47 46569.8234296 57646.4376674 17297.0797235 999999.999999
*  2019 09 18 12 06 20.00000000                             
PL47  1253.3176157  1072.4598177 -6619.3204319 999999.999999
VL47 46500.7836961 57448.7741350 18127.2999868 999999.999999
*  2019 09 18 12 06 30.00000000                             
PL47  1299.7813446  1129.8068229 -6600.7789485 999999.999999
VL47 46425.6600401 57244.0646571 18955.2858973 999999.999999
*  2019 09 18 12 06 40.00000000                             
PL47  1346.1669071  1186.9456096 -6581.4106391 999999.999999
VL47 46344.4506116 57032.3428070 19780.9349140 999999.999999
*  2019 09 18 12 06 50.00000000                             
PL47  1392.4682169  1243.8691825 -6561.2178917 999999.999999
VL47 46257.1544265 56813.6429206 20604.1447364 999999.999999
*  2019 09 18 12 07 00.00000000                             
PL47  1438.6791870  1300.5705811 -6540.2031967 999999.999999
VL47 46163.7713690 56588.0000931 21424.8133158 999999.999999
*  2019 09 18 12 07 10.00000000                             
PL47  1484.7937309  1357.0428804 -6518.3691461 999999.999999
VL47 46064.3020590 56355.4503421 22242.8388685 999999.999999
*  2019 09 18 12 07 20.00000000                             
PL47  1530.8057628  1413.2791918 -6495.7184338 999999.999999
VL47 45958.7478130 56116.0306423 23058.1198959 999999.999999
*  2019 09 18 12 07 30.00000000                             
PL47  1576.7091989  1469.2726642 -6472.2538549 999999.999999
VL47 45847.1108654 55869.7786867 23870.5552084 999999.999999
*  2019 09 18 12 07 40.00000000                             
PL47  1622.4979580  1525.0164845 -6447.9783056 999999.999999
VL47 45729.3943679 55616.7328732 24680.0439476 999999.999999
*  2019 09 18 12 07 50.00000000                             
PL47  1668.1659624  1580.5038785 -6422.8947827 999999.999999
VL47 45605.6022123 55356.9324836 25486.4855987 999999.999999
*  2019 09 18 12 08 00.00000000                             
PL47  1713.7071388  1635.7281114 -6397.0063834 999999.999999
VL47 45475.7389757 55090.4177183 26289.7799951 999999.999999
*  2019 09 18 12 08 10.00000000                             
PL47  1759.1154185  1690.6824894 -6370.3163051 999999.999999
VL47 45339.8101610 54817.2294479 27089.8273233 999999.999999
*  2019 09 18 12 08 20.00000000                             
PL47  1804.3847393  1745.3603596 -6342.8278443 999999.999999
VL47 45197.8221897 54537.4092253 27886.5281353 999999.999999
*  2019 09 18 12 08 30.00000000                             
PL47  1849.5090455  1799.7551113 -6314.5443973 999999.999999
VL47 45049.7821910 54250.9995086 28679.7833674 999999.999999
*  2019 09 18 12 08 40.00000000                             
PL47  1894.4822890  1853.8601766 -6285.4694590 999999.999999
VL47 44895.6979464 53958.0436969 29469.4943581 999999.999999
*  2019 09 18 12 08 50.00000000                             
PL47  1939.2984296  1907.6690314 -6255.6066228 999999.999999
VL47 44735.5781578 53658.5858413 30255.5628578 999999.999999
*  2019 09 18 12 09 00.00000000                             
PL47  1983.9514366  1961.1751958 -6224.9595801 999999.999999
VL47 44569.4324409 53352.6706392 31037.8910350 999999.999999
*  2019 09 18 12 09 10.00000000                             
PL47  2028.4352892  2014.3722354 -6193.5321199 999999.999999
VL47 44397.2710847 53040.3436774 31816.3814817 999999.999999
*  2019 09 18 12 09 20.00000000                             
PL47  2072.7439772  2067.2537614 -6161.3281287 999999.999999
VL47 44219.1049981 52721.6514704 32590.9372226 999999.999999
*  2019 09 18 12 09 30.00000000                             
PL47  2116.8715016  2119.8134323 -6128.3515892 999999.999999
VL47 44034.9460086 52396.6411535 33361.4617245 999999.999999
*  2019 09 18 12 09 40.00000000                             
PL47  2160.8118758  2172.0449536 -6094.6065810 999999.999999
VL47 43844.8068578 52065.3604786 34127.8589022 999999.999999
*  2019 09 18 12 09 50.00000000                             
PL47  2204.5591264  2223.9420793 -6060.0972791 999999.999999
VL47 43648.7009397 51727.8580781 34890.0331242 999999.999999
*  2019 09 18 12 10 00.00000000                             
PL47  2248.1072935  2275.4986123 -6024.8279541 999999.999999
VL47 43446.6422627 51384.1834984 35647.8892219 999999.999999
*  2019 09 18 12 10 10.00000000                             
PL47  2291.4504316  2326.7084056 -5988.8029716 999999.999999
VL47 43238.6457909 51034.3868653 36401.3325021 999999.999999
*  2019 09 18 12 10 20.00000000                             
PL47  2334.5826111  2377.5653623 -5952.0267915 999999.999999
VL47 43024.7274453 50678.5188771 37150.2687617 999999.999999
*  2019 09 18 12 10 30.00000000                             
PL47  2377.4979181  2428.0634368 -5914.5039677 999999.999999
VL47 42804.9038092 50316.6310921 37894.6042995 999999.999999
*  2019 09 18 12 10 40.00000000                             
PL47  2420.1904560  2478.1966353 -5876.2391475 999999.999999
VL47 42579.1920832 49948.7759597 38634.2459261 999999.999999
*  2019 09 18 12 10 50.00000000                             
PL47  2462.6543456  2527.9590172 -5837.2370713 999999.999999
VL47 42347.6104448 49575.0064638 39369.1009727 999999.999999
*  2019 09 18 12 11 00.00000000                             
PL47  2504.8837266  2577.3446946 -5797.5025718 999999.999999
VL47 42110.1780443 49195.3761193 40099.0772997 999999.999999
*  2019 09 18 12 11 10.00000000                             
PL47  2546.8727580  2626.3478340 -5757.0405735 999999.999999
VL47 41866.9146787 48809.9392866 40824.0833054 999999.999999
*  2019 09 18 12 11 20.00000000                             
PL47  2588.6156191  2674.9626561 -5715.8560923 999999.999999
VL47 41617.8407445 48418.7512040 41544.0279326 999999.999999
*  2019 09 18 12 11 30.00000000                             
PL47  2630.1065098  2723.1834379 -5673.9542350 999999.999999
VL47 41362.9776244 48021.8676098 42258.8206719 999999.999999
*  2019 09 18 12 11 40.00000000                             
PL47  2671.3396521  2771.0045116 -5631.3401983 999999.999999
VL47 41102.3476859 47619.3447448 42968.3715644 999999.999999
*  2019 09 18 12 11 50.00000000                             
PL47  2712.3092905  2818.4202666 -5588.0192689 999999.999999
VL47 40835.9739333 47211.2397005 43672.5912053 999999.999999
*  2019 09 18 12 12 00.00000000                             
PL47  2753.0096932  2865.4251496 -5543.9968226 999999.999999
VL47 40563.8799745 46797.6104633 44371.3907555 999999.999999
*  2019 09 18 12 12 10.00000000                             
PL47  2793.4351519  2912.0136656 -5499.2783235 999999.999999
VL47 40286.0904450 46378.5155255 45064.6819605 999999.999999
*  2019 09 18 12 12 20.00000000                             
PL47  2833.5799841  2958.1803784 -5453.8693240 999999.999999
VL47 40002.6310130 45954.0138913 45752.3771802 999999.999999
*  2019 09 18 12 12 30.00000000                             
PL47  2873.4385328  3003.9199111 -5407.7754635 999999.999999
VL47 39713.5280019 45524.1654408 46434.3894247 999999.999999
*  2019 09 18 12 12 40.00000000                             
PL47  2913.0051679  3049.2269472 -5361.0024682 999999.999999
VL47 39418.8083442 45089.0309505 47110.6323930 999999.999999
*  2019 09 18 12 12 50.00000000                             
PL47  2952.2742866  3094.0962314 -5313.5561503 999999.999999
VL47 39118.5000084 44648.6716485 47781.0205062 999999.999999
*  2019 09 18 12 13 00.00000000                             
PL47  2991.2403147  3138.5225695 -5265.4424071 999999.999999
VL47 38812.6319770 44203.1491830 48445.4689273 999999.999999
*  2019 09 18 12 13 10.00000000                             
PL47  3029.8977071  3182.5008295 -5216.6672204 999999.999999
VL47 38501.2338215 43752.5259804 49103.8935635 999999.999999
EOF                                                         
